NORAD_CAT_ID,OBJECT_NAME,OBJECT_TYPE,EPOCH,MEAN_MOTION,ECCENTRICITY,INCLINATION,RA_OF_ASC_NODE,ARG_OF_PERICENTER,MEAN_ANOMALY,BSTAR,MEAN_MOTION_DOT,MEAN_MOTION_DDOT,TLE_LINE0,TLE_LINE1,TLE_LINE2,SEMIMAJOR_AXIS,PERIOD,APOGEE,PERIGEE,DECAYED
55915.0,STARLINK-5859,PAYLOAD,2023-11-03 09:49:54,14.9833191,0.0002749,69.9981,306.0141,266.3185,93.766,9.4475e-06,2e-07,0.0,0 STARLINK-5859,1 55915U 23037B   23307.40966256  .00000020  00000-0  94475-5 0  9999,2 55915  69.9981 306.0141 0002749 266.3185  93.7660 14.98331910 35410,6950.187,96.107,573.963,570.141,0.0
55915.0,STARLINK-5859,PAYLOAD,2023-11-03 17:50:35,14.98329091,0.0002478,69.9993,305.1729,265.2809,94.8067,3.9184e-06,-4.6e-07,0.0,0 STARLINK-5859,1 55915U 23037B   23307.74346504 -.00000046  00000-0  39184-5 0  9999,2 55915  69.9993 305.1729 0002478 265.2809  94.8067 14.98329091 35819,6950.196,96.107,573.783,570.338,0.0
55915.0,STARLINK-5859,PAYLOAD,2023-11-04 09:51:55,14.98345216,0.0002713,69.9988,303.4893,265.6881,94.3968,-0.00024792,-3.051e-05,0.0,0 STARLINK-5859,1 55915U 23037B   23308.41105961 -.00003051  00000-0 -24792-3 0  9991,2 55915  69.9988 303.4893 0002713 265.6881  94.3968 14.98345216 35566,6950.146,96.106,573.896,570.125,0.0
55915.0,STARLINK-5859,PAYLOAD,2023-11-05 03:29:24,14.98327871,0.0002824,69.9981,301.6379,269.7676,90.3159,2.5838e-06,-6.2e-07,0.0,0 STARLINK-5859,1 55915U 23037B   23309.14542518 -.00000062  00000-0  25838-5 0  9997,2 55915  69.9981 301.6379 0002824 269.7676  90.3159 14.98327871 35675,6950.199,96.107,574.027,570.102,0.0
55915.0,STARLINK-5859,PAYLOAD,2023-11-05 09:53:56,14.98332741,0.0002721,69.9988,300.9651,267.2752,92.8096,2.8127e-05,2.43e-06,0.0,0 STARLINK-5859,1 55915U 23037B   23309.41246115  .00000243  00000-0  28127-4 0  9994,2 55915  69.9988 300.9651 0002721 267.2752  92.8096 14.98332741 36064,6950.184,96.107,573.941,570.158,0.0
55915.0,STARLINK-5859,PAYLOAD,2023-11-05 16:18:28,14.98354863,0.0002574,69.9996,300.2913,269.6585,90.4279,-0.0004516,-5.481e-05,0.0,0 STARLINK-5859,1 55915U 23037B   23309.67949774 -.00005481  00000-0 -45160-3 0  9999,2 55915  69.9996 300.2913 0002574 269.6585  90.4279 14.98354863 35754,6950.116,96.105,573.77,570.192,0.0
55915.0,STARLINK-5859,PAYLOAD,2023-11-06 03:31:25,14.98331819,0.0002569,69.9989,299.1131,271.825,88.2615,-1.9516e-05,-3.26e-06,0.0,0 STARLINK-5859,1 55915U 23037B   23310.14682345 -.00000326  00000-0 -19516-4 0  9991,2 55915  69.9989 299.1131 0002569 271.8250  88.2615 14.98331819 35825,6950.187,96.107,573.838,570.267,0.0
55915.0,STARLINK-5859,PAYLOAD,2023-11-06 09:55:57,14.98334641,0.0002484,69.9988,298.439,260.1285,99.9593,0.00019158,2.194e-05,0.0,0 STARLINK-5859,1 55915U 23037B   23310.41385493  .00002194  00000-0  19158-3 0  9999,2 55915  69.9988 298.4390 0002484 260.1285  99.9593 14.98334641 35862,6950.179,96.107,573.77,570.317,0.0
55915.0,STARLINK-5859,PAYLOAD,2023-11-06 16:20:29,14.98345547,0.0002684,69.9988,297.7656,269.3061,90.7791,-0.00041803,-5.079e-05,0.0,0 STARLINK-5859,1 55915U 23037B   23310.68090166 -.00005079  00000-0 -41803-3 0  9997,2 55915  69.9988 297.7656 0002684 269.3061  90.7791 14.98345547 36254,6950.145,96.106,573.875,570.144,0.0
55915.0,STARLINK-5859,PAYLOAD,2023-11-07 03:33:28,14.98310252,0.0002603,69.9984,296.5876,249.7188,110.3691,-0.00017538,-2.184e-05,0.0,0 STARLINK-5859,1 55915U 23037B   23311.14824272 -.00002184  00000-0 -17538-3 0  9994,2 55915  69.9984 296.5876 0002603 249.7188 110.3691 14.98310252 35975,6950.254,96.108,573.928,570.31,0.0
55915.0,STARLINK-5859,PAYLOAD,2023-11-07 08:21:52,14.98308248,0.0002527,69.9988,296.0825,256.4393,103.6484,-0.00017838,-2.219e-05,0.0,0 STARLINK-5859,1 55915U 23037B   23311.34852677 -.00002219  00000-0 -17838-3 0  9998,2 55915  69.9988 296.0825 0002527 256.4393 103.6484 14.98308248 36356,6950.26,96.108,573.881,570.369,0.0
55915.0,STARLINK-5859,PAYLOAD,2023-11-07 16:22:32,14.98336703,0.0002621,69.9992,295.2404,267.1988,92.8871,-0.00046064,-5.586e-05,0.0,0 STARLINK-5859,1 55915U 23037B   23311.68231757 -.00005586  00000-0 -46064-3 0  9998,2 55915  69.9992 295.2404 0002621 267.1988  92.8871 14.98336703 36052,6950.172,96.107,573.859,570.216,0.0
55915.0,STARLINK-5859,PAYLOAD,2023-11-08 03:35:29,14.98313791,0.00025,69.9989,294.0634,259.2967,100.7911,-0.00015023,-1.884e-05,0.0,0 STARLINK-5859,1 55915U 23037B   23312.14965074 -.00001884  00000-0 -15023-3 0  9994,2 55915  69.9989 294.0634 0002500 259.2967 100.7911 14.98313791 36129,6950.243,96.108,573.846,570.37,0.0
55915.0,STARLINK-5859,PAYLOAD,2023-11-08 08:23:52,14.98328971,0.0002829,69.9982,293.5582,259.8875,100.1965,4.1816e-06,-4.3e-07,0.0,0 STARLINK-5859,1 55915U 23037B   23312.34991756 -.00000043  00000-0  41816-5 0  9998,2 55915  69.9982 293.5582 0002829 259.8875 100.1965 14.98328971 36158,6950.196,96.107,574.027,570.095,0.0
55915.0,STARLINK-5859,PAYLOAD,2023-11-08 16:24:32,14.9833567,0.0002966,69.9992,292.7172,256.9336,103.1492,6.364e-05,6.67e-06,0.0,0 STARLINK-5859,1 55915U 23037B   23312.68371087  .00000667  00000-0  63640-4 0  9993,2 55915  69.9992 292.7172 0002966 256.9336 103.1492 14.98335670 36205,6950.175,96.107,574.102,569.979,0.0
55915.0,STARLINK-5859,PAYLOAD,2023-11-09 08:25:52,14.98336615,0.0002842,69.9984,291.0336,257.7955,102.2885,0.00035362,4.13e-05,0.0,0 STARLINK-5859,1 55915U 23037B   23313.35130279  .00004130  00000-0  35362-3 0  9992,2 55915  69.9984 291.0336 0002842 257.7955 102.2885 14.98336615 36654,6950.172,96.107,574.013,570.062,0.0
55915.0,STARLINK-5859,PAYLOAD,2023-11-09 16:26:33,14.9833213,0.0002126,69.9995,290.1937,268.0309,92.0606,0.00030705,3.573e-05,0.0,0 STARLINK-5859,1 55915U 23037B   23313.68510853  .00003573  00000-0  30705-3 0  9994,2 55915  69.9995 290.1937 0002126 268.0309  92.0606 14.98332130 36358,6950.186,96.107,573.529,570.574,0.0
55915.0,STARLINK-5859,PAYLOAD,2023-11-09 22:51:05,14.98332065,0.0002501,69.9988,289.52,264.732,95.3553,0.00028288,3.284e-05,0.0,0 STARLINK-5859,1 55915U 23037B   23313.95214662  .00003284  00000-0  28288-3 0  9995,2 55915  69.9988 289.5200 0002501 264.7320  95.3553 14.98332065 36745,6950.187,96.107,573.79,570.313,0.0
55915.0,STARLINK-5859,PAYLOAD,2023-11-10 08:27:53,14.98337838,0.0002832,69.9988,288.5074,254.1212,105.9635,0.00013133,1.475e-05,0.0,0 STARLINK-5859,1 55915U 23037B   23314.35270447  .00001475  00000-0  13133-3 0  9996,2 55915  69.9988 288.5074 0002832 254.1212 105.9635 14.98337838 36802,6950.169,96.106,574.002,570.065,0.0
55915.0,STARLINK-5859,PAYLOAD,2023-11-11 03:41:30,14.98340419,0.0002937,69.9984,286.4881,261.5371,98.5455,-0.00011047,-1.411e-05,0.0,0 STARLINK-5859,1 55915U 23037B   23315.15382310 -.00001411  00000-0 -11047-3 0  9992,2 55915  69.9984 286.4881 0002937 261.5371  98.5455 14.98340419 36575,6950.161,96.106,574.067,569.984,0.0
55915.0,STARLINK-5859,PAYLOAD,2023-11-11 08:29:54,14.98340594,0.000278,69.9986,285.9825,257.8495,102.2353,-8.4486e-05,-1.101e-05,0.0,0 STARLINK-5859,1 55915U 23037B   23315.35410084 -.00001101  00000-0 -84486-4 0  9998,2 55915  69.9986 285.9825 0002780 257.8495 102.2353 14.98340594 36956,6950.16,96.106,573.957,570.093,0.0
55915.0,STARLINK-5859,PAYLOAD,2023-11-12 03:43:31,14.98329382,0.0002847,69.9987,283.9618,265.494,94.5894,-4.2092e-05,-5.95e-06,0.0,0 STARLINK-5859,1 55915U 23037B   23316.15522297 -.00000595  00000-0 -42092-4 0  9990,2 55915  69.9987 283.9618 0002847 265.4940  94.5894 14.98329382 36729,6950.195,96.107,574.039,570.081,0.0
55915.0,STARLINK-5859,PAYLOAD,2023-11-12 08:31:55,14.98332186,0.0002596,69.9992,283.4577,254.3315,105.7557,-4.1567e-05,-5.89e-06,0.0,0 STARLINK-5859,1 55915U 23037B   23316.35550080 -.00000589  00000-0 -41567-4 0  9992,2 55915  69.9992 283.4577 0002596 254.3315 105.7557 14.98332186 37108,6950.186,96.107,573.855,570.247,0.0
55915.0,STARLINK-5859,PAYLOAD,2023-11-12 14:56:27,14.98344331,0.0002709,69.9992,282.7832,269.2982,90.7867,-0.00024147,-2.974e-05,0.0,0 STARLINK-5859,1 55915U 23037B   23316.62253647 -.00002974  00000-0 -24147-3 0  9995,2 55915  69.9992 282.7832 0002709 269.2982  90.7867 14.98344331 36791,6950.149,96.106,573.896,570.131,0.0
55915.0,STARLINK-5859,PAYLOAD,2023-11-13 03:45:31,14.98330357,0.0002457,69.9997,281.4397,256.3476,103.7409,6.0655e-06,-2.1e-07,0.0,0 STARLINK-5859,1 55915U 23037B   23317.15661999 -.00000021  00000-0  60655-5 0  9993,2 55915  69.9997 281.4397 0002457 256.3476 103.7409 14.98330357 36872,6950.192,96.107,573.764,570.349,0.0
55915.0,STARLINK-5859,PAYLOAD,2023-11-13 06:57:47,14.98331499,0.0002553,69.9994,281.1027,258.7782,101.309,3.1422e-05,2.82e-06,0.0,0 STARLINK-5859,1 55915U 23037B   23317.29013830  .00000282  00000-0  31422-4 0  9990,2 55915  69.9994 281.1027 0002553 258.7782 101.3090 14.98331499 37249,6950.188,96.107,573.828,570.279,0.0
55915.0,STARLINK-5859,PAYLOAD,2023-11-13 21:23:00,14.98326496,0.0002506,69.9994,279.5863,264.2074,95.8799,1.2595e-05,5.7e-07,0.0,0 STARLINK-5859,1 55915U 23037B   23317.89098163  .00000057  00000-0  12595-4 0  9998,2 55915  69.9994 279.5863 0002506 264.2074  95.8799 14.98326496 37336,6950.204,96.107,573.81,570.327,0.0
55915.0,STARLINK-5859,PAYLOAD,2023-11-14 03:47:33,14.98324443,0.0002621,69.9992,278.913,267.7429,92.3429,-1.6425e-05,-2.89e-06,0.0,0 STARLINK-5859,1 55915U 23037B   23318.15802449 -.00000289  00000-0 -16425-4 0  9993,2 55915  69.9992 278.9130 0002621 267.7429  92.3429 14.98324443 37022,6950.21,96.107,573.897,570.253,0.0
55915.0,STARLINK-5859,PAYLOAD,2023-11-14 06:59:49,14.98324121,0.0002389,69.9997,278.5763,265.1334,94.9552,-2.3225e-05,-3.7e-06,0.0,0 STARLINK-5859,1 55915U 23037B   23318.29154536 -.00000370  00000-0 -23225-4 0  9992,2 55915  69.9997 278.5763 0002389 265.1334  94.9552 14.98324121 37391,6950.211,96.107,573.736,570.416,0.0
55915.0,STARLINK-5859,PAYLOAD,2023-11-14 15:00:29,14.98328237,0.0002687,69.9999,277.7339,271.2661,88.819,-4.2288e-06,-1.43e-06,0.0,0 STARLINK-5859,1 55915U 23037B   23318.62534215 -.00000143  00000-0 -42288-5 0  9994,2 55915  69.9999 277.7339 0002687 271.2661  88.8190 14.98328237 37443,6950.198,96.107,573.931,570.196,0.0
